ATLAS CENTAUR 2         
1 00694U 63047A   26015.59181368  .00001057  00000+0  11662-3 0  9995
2 00694  30.3549 132.3430 0548462 332.3969  24.8493 14.11899897124111
THOR AGENA D R/B        
1 00733U 64002A   26015.56364758  .00000119  00000+0  59832-4 0  9994
2 00733  99.1221  26.0124 0033714  54.1554 306.2753 14.33981975230681
SL-3 R/B                
1 00877U 64053B   26015.58595064  .00000117  00000+0  47116-4 0  9997
2 00877  65.0773 126.9188 0076687 309.1972  50.2334 14.61305993259039
SL-8 R/B                
1 02802U 67045B   26015.63439739  .00000143  00000+0  47243-4 0  9993
2 02802  74.0112  87.1724 0062922 107.5758 253.2286 14.45572318 81357
SL-8 R/B                
1 03230U 68040B   26015.59457387  .00002099  00000+0  15892-3 0  9995
2 03230  74.0310  62.1488 0026323 259.1199 100.7027 15.02797141 82033
OAO 2                   
1 03597U 68110A   26015.59300596  .00000147  00000+0  44732-4 0  9996
2 03597  34.9911 201.6662 0005000 137.1940 222.9141 14.47267552 11406
ISIS 1                  
1 03669U 69009A   26015.34314111  .00000246  00000+0  17016-3 0  9999
2 03669  88.4524 161.1233 1707739 196.8121 156.8812 11.30377838342502
SERT 2                  
1 04327U 70009A   26015.39533720 -.00000001  00000+0  55056-4 0  9994
2 04327  99.2692 321.4245 0004275 309.1986 160.0482 13.58723022772651
SL-3 R/B                
1 05118U 71028B   26015.57448837  .00022779  00000+0  31415-3 0  9996
2 05118  81.2388 117.4217 0018323 119.8806 240.4268 15.56851513980395
ASTEX 1                 
1 05560U 71089A   26015.36642705  .00000332  00000+0  84666-4 0  9999
2 05560  92.7158 134.5030 0013383 263.5632  96.4050 14.50690539854576
SL-8 R/B                
1 05730U 71119B   26015.12271371  .00004425  00000+0  23200-3 0  9996
2 05730  73.8886 275.7421 0556391 253.2943 100.6463 14.36487259647794
OAO 3 (COPERNICUS)      
1 06153U 72065A   26015.66273192  .00000218  00000+0  49143-4 0  9990
2 06153  35.0042 239.4203 0005861  86.4124 312.2726 14.59941513838441
