CCSDS_OMM_VERS = 2.0
CREATION_DATE  = 
ORIGINATOR     = 

OBJECT_NAME    = ATLAS CENTAUR 2
OBJECT_ID      = 1963-047A
CENTER_NAME    = EARTH
REF_FRAME      = TEME
TIME_SYSTEM    = UTC
MEAN_ELEMENT_THEORY = SGP/SGP4

EPOCH          = 2026-01-15T14:12:12.701952
MEAN_MOTION    = 14.11899897
ECCENTRICITY   = .05484629
INCLINATION    = 30.3549
RA_OF_ASC_NODE = 132.3430
ARG_OF_PERICENTER = 332.3969
MEAN_ANOMALY   = 24.8493

EPHEMERIS_TYPE = 0
CLASSIFICATION_TYPE = U
NORAD_CAT_ID   = 694
ELEMENT_SET_NO = 999
REV_AT_EPOCH   = 12411
BSTAR          = .1166226E-3
MEAN_MOTION_DOT = .1057E-4
MEAN_MOTION_DDOT = 0

CCSDS_OMM_VERS = 2.0
CREATION_DATE  = 
ORIGINATOR     = 

OBJECT_NAME    = THOR AGENA D R/B
OBJECT_ID      = 1964-002A
CENTER_NAME    = EARTH
REF_FRAME      = TEME
TIME_SYSTEM    = UTC
MEAN_ELEMENT_THEORY = SGP/SGP4

EPOCH          = 2026-01-15T13:31:39.150912
MEAN_MOTION    = 14.33981975
ECCENTRICITY   = .00337142
INCLINATION    = 99.1221
RA_OF_ASC_NODE = 26.0124
ARG_OF_PERICENTER = 54.1554
MEAN_ANOMALY   = 306.2753

EPHEMERIS_TYPE = 0
CLASSIFICATION_TYPE = U
NORAD_CAT_ID   = 733
ELEMENT_SET_NO = 999
REV_AT_EPOCH   = 23068
BSTAR          = .5983156E-4
MEAN_MOTION_DOT = .119E-5
MEAN_MOTION_DDOT = 0

CCSDS_OMM_VERS = 2.0
CREATION_DATE  = 
ORIGINATOR     = 

OBJECT_NAME    = SL-3 R/B
OBJECT_ID      = 1964-053B
CENTER_NAME    = EARTH
REF_FRAME      = TEME
TIME_SYSTEM    = UTC
MEAN_ELEMENT_THEORY = SGP/SGP4

EPOCH          = 2026-01-15T14:03:46.135296
MEAN_MOTION    = 14.61305993
ECCENTRICITY   = .00766871
INCLINATION    = 65.0773
RA_OF_ASC_NODE = 126.9188
ARG_OF_PERICENTER = 309.1972
MEAN_ANOMALY   = 50.2334

EPHEMERIS_TYPE = 0
CLASSIFICATION_TYPE = U
NORAD_CAT_ID   = 877
ELEMENT_SET_NO = 999
REV_AT_EPOCH   = 25903
BSTAR          = .47115857E-4
MEAN_MOTION_DOT = .117E-5
MEAN_MOTION_DDOT = 0

CCSDS_OMM_VERS = 2.0
CREATION_DATE  = 
ORIGINATOR     = 

OBJECT_NAME    = SL-8 R/B
OBJECT_ID      = 1967-045B
CENTER_NAME    = EARTH
REF_FRAME      = TEME
TIME_SYSTEM    = UTC
MEAN_ELEMENT_THEORY = SGP/SGP4

EPOCH          = 2026-01-15T15:13:31.934496
MEAN_MOTION    = 14.45572318
ECCENTRICITY   = .00629224
INCLINATION    = 74.0112
RA_OF_ASC_NODE = 87.1724
ARG_OF_PERICENTER = 107.5758
MEAN_ANOMALY   = 253.2286

EPHEMERIS_TYPE = 0
CLASSIFICATION_TYPE = U
NORAD_CAT_ID   = 2802
ELEMENT_SET_NO = 999
REV_AT_EPOCH   = 8135
BSTAR          = .47243E-4
MEAN_MOTION_DOT = .143E-5
MEAN_MOTION_DDOT = 0

CCSDS_OMM_VERS = 2.0
CREATION_DATE  = 
ORIGINATOR     = 

OBJECT_NAME    = SL-8 R/B
OBJECT_ID      = 1968-040B
CENTER_NAME    = EARTH
REF_FRAME      = TEME
TIME_SYSTEM    = UTC
MEAN_ELEMENT_THEORY = SGP/SGP4

EPOCH          = 2026-01-15T14:16:11.182368
MEAN_MOTION    = 15.02797141
ECCENTRICITY   = .00263232
INCLINATION    = 74.0310
RA_OF_ASC_NODE = 62.1488
ARG_OF_PERICENTER = 259.1199
MEAN_ANOMALY   = 100.7027

EPHEMERIS_TYPE = 0
CLASSIFICATION_TYPE = U
NORAD_CAT_ID   = 3230
ELEMENT_SET_NO = 999
REV_AT_EPOCH   = 8203
BSTAR          = .15891944E-3
MEAN_MOTION_DOT = .2099E-4
MEAN_MOTION_DDOT = 0

CCSDS_OMM_VERS = 2.0
CREATION_DATE  = 
ORIGINATOR     = 

OBJECT_NAME    = OAO 2
OBJECT_ID      = 1968-110A
CENTER_NAME    = EARTH
REF_FRAME      = TEME
TIME_SYSTEM    = UTC
MEAN_ELEMENT_THEORY = SGP/SGP4

EPOCH          = 2026-01-15T14:13:55.714944
MEAN_MOTION    = 14.47267552
ECCENTRICITY   = .00050008
INCLINATION    = 34.9911
RA_OF_ASC_NODE = 201.6662
ARG_OF_PERICENTER = 137.1940
MEAN_ANOMALY   = 222.9141

EPHEMERIS_TYPE = 0
CLASSIFICATION_TYPE = U
NORAD_CAT_ID   = 3597
ELEMENT_SET_NO = 999
REV_AT_EPOCH   = 1140
BSTAR          = .44731785E-4
MEAN_MOTION_DOT = .147E-5
MEAN_MOTION_DDOT = 0

CCSDS_OMM_VERS = 2.0
CREATION_DATE  = 
ORIGINATOR     = 

OBJECT_NAME    = ISIS 1
OBJECT_ID      = 1969-009A
CENTER_NAME    = EARTH
REF_FRAME      = TEME
TIME_SYSTEM    = UTC
MEAN_ELEMENT_THEORY = SGP/SGP4

EPOCH          = 2026-01-15T08:14:07.391904
MEAN_MOTION    = 11.30377838
ECCENTRICITY   = .17077395
INCLINATION    = 88.4524
RA_OF_ASC_NODE = 161.1233
ARG_OF_PERICENTER = 196.8121
MEAN_ANOMALY   = 156.8812

EPHEMERIS_TYPE = 0
CLASSIFICATION_TYPE = U
NORAD_CAT_ID   = 3669
ELEMENT_SET_NO = 999
REV_AT_EPOCH   = 34250
BSTAR          = .17016194E-3
MEAN_MOTION_DOT = .246E-5
MEAN_MOTION_DDOT = 0

CCSDS_OMM_VERS = 2.0
CREATION_DATE  = 
ORIGINATOR     = 

OBJECT_NAME    = SERT 2
OBJECT_ID      = 1970-009A
CENTER_NAME    = EARTH
REF_FRAME      = TEME
TIME_SYSTEM    = UTC
MEAN_ELEMENT_THEORY = SGP/SGP4

EPOCH          = 2026-01-15T09:29:17.134080
MEAN_MOTION    = 13.58723022
ECCENTRICITY   = .00042757
INCLINATION    = 99.2692
RA_OF_ASC_NODE = 321.4245
ARG_OF_PERICENTER = 309.1986
MEAN_ANOMALY   = 160.0482

EPHEMERIS_TYPE = 0
CLASSIFICATION_TYPE = U
NORAD_CAT_ID   = 4327
ELEMENT_SET_NO = 999
REV_AT_EPOCH   = 77265
BSTAR          = .55055898E-4
MEAN_MOTION_DOT = -.1E-7
MEAN_MOTION_DDOT = 0

CCSDS_OMM_VERS = 2.0
CREATION_DATE  = 
ORIGINATOR     = 

OBJECT_NAME    = SL-3 R/B
OBJECT_ID      = 1971-028B
CENTER_NAME    = EARTH
REF_FRAME      = TEME
TIME_SYSTEM    = UTC
MEAN_ELEMENT_THEORY = SGP/SGP4

EPOCH          = 2026-01-15T13:47:15.795168
MEAN_MOTION    = 15.56851513
ECCENTRICITY   = .00183236
INCLINATION    = 81.2388
RA_OF_ASC_NODE = 117.4217
ARG_OF_PERICENTER = 119.8806
MEAN_ANOMALY   = 240.4268

EPHEMERIS_TYPE = 0
CLASSIFICATION_TYPE = U
NORAD_CAT_ID   = 5118
ELEMENT_SET_NO = 999
REV_AT_EPOCH   = 98039
BSTAR          = .31414949E-3
MEAN_MOTION_DOT = .22779E-3
MEAN_MOTION_DDOT = 0

CCSDS_OMM_VERS = 2.0
CREATION_DATE  = 
ORIGINATOR     = 

OBJECT_NAME    = ASTEX 1
OBJECT_ID      = 1971-089A
CENTER_NAME    = EARTH
REF_FRAME      = TEME
TIME_SYSTEM    = UTC
MEAN_ELEMENT_THEORY = SGP/SGP4

EPOCH          = 2026-01-15T08:47:39.297120
MEAN_MOTION    = 14.50690539
ECCENTRICITY   = .00133833
INCLINATION    = 92.7158
RA_OF_ASC_NODE = 134.5030
ARG_OF_PERICENTER = 263.5632
MEAN_ANOMALY   = 96.4050

EPHEMERIS_TYPE = 0
CLASSIFICATION_TYPE = U
NORAD_CAT_ID   = 5560
ELEMENT_SET_NO = 999
REV_AT_EPOCH   = 85457
BSTAR          = .84665632E-4
MEAN_MOTION_DOT = .332E-5
MEAN_MOTION_DDOT = 0

CCSDS_OMM_VERS = 2.0
CREATION_DATE  = 
ORIGINATOR     = 

OBJECT_NAME    = SL-8 R/B
OBJECT_ID      = 1971-119B
CENTER_NAME    = EARTH
REF_FRAME      = TEME
TIME_SYSTEM    = UTC
MEAN_ELEMENT_THEORY = SGP/SGP4

EPOCH          = 2026-01-15T02:56:42.464544
MEAN_MOTION    = 14.36487259
ECCENTRICITY   = .05563917
INCLINATION    = 73.8886
RA_OF_ASC_NODE = 275.7421
ARG_OF_PERICENTER = 253.2943
MEAN_ANOMALY   = 100.6463

EPHEMERIS_TYPE = 0
CLASSIFICATION_TYPE = U
NORAD_CAT_ID   = 5730
ELEMENT_SET_NO = 999
REV_AT_EPOCH   = 64779
BSTAR          = .23199873E-3
MEAN_MOTION_DOT = .4425E-4
MEAN_MOTION_DDOT = 0

CCSDS_OMM_VERS = 2.0
CREATION_DATE  = 
ORIGINATOR     = 

OBJECT_NAME    = OAO 3 (COPERNICUS)
OBJECT_ID      = 1972-065A
CENTER_NAME    = EARTH
REF_FRAME      = TEME
TIME_SYSTEM    = UTC
MEAN_ELEMENT_THEORY = SGP/SGP4

EPOCH          = 2026-01-15T15:54:20.037888
MEAN_MOTION    = 14.59941513
ECCENTRICITY   = .00058612
INCLINATION    = 35.0042
RA_OF_ASC_NODE = 239.4203
ARG_OF_PERICENTER = 86.4124
MEAN_ANOMALY   = 312.2726

EPHEMERIS_TYPE = 0
CLASSIFICATION_TYPE = U
NORAD_CAT_ID   = 6153
ELEMENT_SET_NO = 999
REV_AT_EPOCH   = 83844
BSTAR          = .49143152E-4
MEAN_MOTION_DOT = .218E-5
MEAN_MOTION_DDOT = 0

